;object_name;chain;object_type;address;number;street;coords;district
19;американская лаборатория десертов;нет;кафе;город москва, филипповский переулок, дом 15/5;20;филипповский переулок;37.598573 55.75058;район Арбат
61;столовая;нет;столовая;город москва, бабаевская улица, дом 3;90;бабаевская улица;37.689069 55.790595;район Сокольники
69;хуанхэ;нет;ресторан;город москва, 1-й балтийский переулок, дом 3/25;60;1-й балтийский переулок;37.518785 55.810471;район Аэропорт
81;азербайджан;нет;ресторан;город москва, улица демьяна бедного, дом 4;180;улица демьяна бедного;37.48693 55.770401;район Хорошёво-Мнёвники
131;вгик;нет;столовая;город москва, будайская улица, дом 3;45;будайская улица;37.665156 55.831903;район Ростокино
150;советские времена;да;кафе;город москва, варсонофьевский переулок, дом 6;82;варсонофьевский переулок;37.62572 55.763194;Мещанский район
179;угол;нет;кафе;город москва, верхняя улица, дом 3, корпус 2;71;верхняя улица;37.574911 55.776856;район Беговой
181;бар в фитнес клубе;нет;бар;город москва, глазовский переулок, дом 5;4;глазовский переулок;37.587084 55.743933;район Хамовники
228;ооо «театро»;нет;кафе;город москва, воротниковский переулок, дом 11, строение 1;35;воротниковский переулок;37.601286 55.770416;Тверской район
235;сущевский дворик;нет;кафе;город москва, 2-й вышеславцев переулок, дом 17;48;2-й вышеславцев переулок;37.605984 55.790499;район Марьина Роща
241;столовая гбпоу зкно;нет;буфет;город москва, гвардейская улица, дом 15, корпус 1;50;гвардейская улица;37.423204 55.724789;Можайский район
251;при школе 1294;нет;столовая;город москва, глебовская улица, дом 10;240;глебовская улица;37.715525 55.813202;район Богородское
308;столовая школы 1254;нет;столовая;город москва, улица девятая рота, дом 14;160;улица девятая рота;37.712596 55.791142;район Преображенское
350;ньокки;да;ресторан;город москва, улица генерала ермолова, дом 4;60;улица генерала ермолова;37.518057 55.73479;район Дорогомилово
352;хижина;да;ресторан;город москва, улица жебрунова, дом 4;120;улица жебрунова;37.678424 55.784997;район Сокольники
354;столовая спецшкола 9;нет;столовая;город москва, улица бориса жигулёнкова, дом 15;80;улица бориса жигулёнкова;37.732979 55.773586;район Соколиная Гора
359;тратория;нет;кафе;город москва, улица жуковского, дом 5;50;улица жуковского;37.64542 55.763776;Басманный район
437;пивной бар элефант;нет;бар;город москва, 2-й колобовский переулок, дом 12;55;2-й колобовский переулок;37.616467 55.769276;Тверской район
463;столовая при гбоу школа 171;нет;столовая;город москва, кооперативная улица, дом 2, корпус 13;24;кооперативная улица;37.566117 55.72487;район Хамовники
520;прованс;нет;ресторан;город москва, 1-й обыденский переулок, дом 9/12;40;1-й обыденский переулок;37.602256 55.743005;район Хамовники
522;фидан;нет;ресторан;город москва, кунцевская улица, дом 10;81;кунцевская улица;37.412981 55.731288;район Кунцево
538;кп мэи;нет;столовая;город москва, улица лапина, дом 3;240;улица лапина;37.712704 55.756391;район Лефортово
540;волконский;да;магазин (отдел кулинарии);город москва, малый лёвшинский переулок, дом 14/9, строение 1;16;малый лёвшинский переулок;37.589536 55.742514;район Хамовники
627;гивисациви;нет;кафе;город москва, лужнецкий проезд, дом 1;95;лужнецкий проезд;37.560395 55.725392;район Хамовники
642;столовая при гбоу школа 57;нет;столовая;город москва, малый знаменский переулок, дом 7/10, строение 2;36;малый знаменский переулок;37.604978 55.748285;район Хамовники
711;буфет техникума мпэ;нет;буфет;город москва, мирской переулок, дом 5;30;мирской переулок;37.565919 55.796982;Савёловский район
713;ресторан «граф орлов»;нет;ресторан;город москва, 2-й верхний михайловский проезд, дом 2;90;2-й верхний михайловский проезд;37.605113 55.709551;Донской район
737;журфак;нет;кафе;город москва, большой афанасьевский переулок, дом 3, строение 3;49;большой афанасьевский переулок;37.59692 55.745149;район Хамовники
742;хинкаль палас;нет;кафе;город москва, нагорный бульвар, дом 5, корпус 1;40;нагорный бульвар;37.59383 55.673844;район Котловка
756;антикварный boutique & bar;нет;бар;город москва, звонарский переулок, дом 5;30;звонарский переулок;37.621947 55.764663;Мещанский район
757;union jack;нет;бар;город москва, нижний кисельный переулок, дом 3, строение 1;30;нижний кисельный переулок;37.621785 55.765519;Мещанский район
779;кафе дада;нет;кафе;город москва, 1-й новокузнецкий переулок, дом 5-7;30;1-й новокузнецкий переулок;37.632305 55.734679;район Замоскворечье
783;гбоу школа № 1352;нет;столовая;город москва, новосибирская улица, дом 8;110;новосибирская улица;37.821167 55.815752;район Гольяново
895;пицца-фабрика;нет;кафе;город москва, улица пивченкова, дом 7;12;улица пивченкова;37.475576 55.73552;район Фили-Давыдково
899;сказочный двор;нет;кафе;город москва, платовская улица, дом 4;45;платовская улица;37.555193 55.744799;район Дорогомилово
908;кафе;нет;кафетерий;город москва, 3-й проезд подбельского, дом 22, корпус 3;16;3-й проезд подбельского;37.723187 55.81913;район Богородское
910;cezve coffee;нет;кафе;город москва, подсосенский переулок, дом 8, строение 2;20;подсосенский переулок;37.649966 55.758301;Басманный район
990;трапезная;нет;столовая;город москва, улица рогожский посёлок, дом 3;10;улица рогожский посёлок;37.70072 55.737897;Нижегородский район
1062;гранатовый сад;нет;ресторан;город москва, 1-й сетуньский проезд, дом 10;80;1-й сетуньский проезд;37.539078 55.73223;район Раменки
1113;вуден бор;нет;кафе;город москва, 2-й стрелецкий проезд, дом 7;40;2-й стрелецкий проезд;37.605777 55.797326;район Марьина Роща
1147;школа апогей;нет;буфет;город москва, таганрогская улица, дом 7;150;таганрогская улица;37.755239 55.680488;район Люблино
1163;буфет при гуп «объединенный комбинат школьного питания»;нет;столовая;город москва, тенистый проезд, дом 8;98;тенистый проезд;37.640246 55.861105;район Свиблово
1219;амбарчик;нет;кафе;город москва, малый николопесковский переулок, дом 9/1, строение 2;20;малый николопесковский переулок;37.59118 55.751001;район Арбат
1273;буфет школы 694;нет;буфет;город москва, 2-й хуторской переулок, дом 4/13;75;2-й хуторской переулок;37.577157 55.806125;Савёловский район
1404;кафе «one teaspoon»;нет;кафе;город москва, яузский бульвар, дом 14/8;16;яузский бульвар;37.643615 55.75095;Таганский район
1426;будайский дворик;нет;ресторан;город москва, будайский проезд, дом 8;98;будайский проезд;37.668767 55.836064;район Ростокино
1432;буфет при общежитии;нет;буфет;город москва, международная улица, дом 15;8;международная улица;37.684811 55.745635;Таганский район
1456;матрешка;нет;кафе;город москва, новолучанская улица, дом 22, строение 1;17;новолучанская улица;37.35954 55.790403;район Кунцево
1466;алиби;нет;ресторан;город москва, ащеулов переулок, дом 9;85;ащеулов переулок;37.634613 55.767701;Красносельский район
1537;чашка;нет;бар;город москва, улица академика семёнова, дом 3;40;улица академика семёнова;37.511544 55.543516;район Южное Бутово
1574;улисс паб;нет;бар;город москва, кривоарбатский переулок, дом 16/22;100;кривоарбатский переулок;37.588431 55.747718;район Арбат
1633;кафе-пиццерия;нет;кафе;город москва, 1-й зачатьевский переулок, дом 4;50;1-й зачатьевский переулок;37.604169 55.739716;район Хамовники
1646;tokyo bay;да;кафе;город москва, старомонетный переулок, дом 18;50;старомонетный переулок;37.618507 55.739727;район Якиманка
1654;супкультура;нет;кафе;город москва, 2-й щемиловский переулок, дом 4;30;2-й щемиловский переулок;37.608365 55.776826;Тверской район
1667;борго;нет;кафе;город москва, 2-й полевой переулок, дом 2;45;2-й полевой переулок;37.68111 55.792179;район Сокольники
1687;кафе торшер;нет;кафе;город москва, улица васильцовский стан, дом 5, корпус 1;48;улица васильцовский стан;37.750712 55.713826;Рязанский район
1756;else kafe;нет;кафе;город москва, иваньковское шоссе, дом 5;30;иваньковское шоссе;37.465892 55.819949;район Покровское-Стрешнево
1781;густаторе;нет;кафе;город москва, петровско-разумовская аллея, дом 10, корпус 3;24;петровско-разумовская аллея;37.560574 55.793693;район Аэропорт
1847;кафе angelov;нет;кафе;город москва, 2-й неопалимовский переулок, дом 3;35;2-й неопалимовский переулок;37.582484 55.739336;район Хамовники
1860;кафе «наш бараш»;нет;ресторан;город москва, поселение десеновское, армейская улица, дом 1;60;армейская улица;37.361606 55.509849;
1863;у мангала;нет;кафе;город москва, город щербинка, спортивная улица, дом 23;45;спортивная улица;37.56777 55.500091;
1866;подмосковные вечера;нет;ресторан;город москва, город щербинка, 2-я барышевская улица, дом 1;72;2-я барышевская улица;37.54409 55.497434;
1909;столовая;нет;столовая;город москва, конаковский проезд, дом 5;240;конаковский проезд;37.481145 55.845895;Головинский район
1915;школа 1381;нет;столовая;город москва, янтарный проезд, дом 2;300;янтарный проезд;37.691647 55.872794;Лосиноостровский район
1918;столовая;нет;столовая;город москва, авиационный переулок, дом 5;62;авиационный переулок;37.53879 55.800215;район Аэропорт
1934;столовая колорит кадетского корпуса № 1783;нет;столовая;город москва, 3-я новоостанкинская улица, дом 6;80;3-я новоостанкинская улица;37.626654 55.817537;Останкинский район
1955;бюргер;нет;бар;город москва, докучаев переулок, дом 6, строение 2;60;докучаев переулок;37.64401 55.773434;Красносельский район
1964;столовая;нет;столовая;город москва, фармацевтический проезд, дом 1;55;фармацевтический проезд;37.513997 55.832955;район Коптево
1969;столовая «гкб им. с.п. боткина»;нет;столовая;город москва, большой предтеченский переулок, дом 15/8, строение 1;70;большой предтеченский переулок;37.566979 55.759805;Пресненский район
1976;школа №110;нет;столовая;город москва, столовый переулок, дом 10/2, строение 1;40;столовый переулок;37.594755 55.756756;Пресненский район
2022;yoko;нет;ресторан;город москва, соймоновский проезд, дом 5;50;соймоновский проезд;37.604358 55.743233;район Хамовники
2029;ривер;нет;кафе;город москва, малый власьевский переулок, дом 12, строение 2;24;малый власьевский переулок;37.593875 55.74675;район Хамовники
2041;хинкальная;да;кафе;город москва, богоявленский переулок, дом 6, строение 2;20;богоявленский переулок;37.623492 55.755596;Тверской район
2069;казан чай бар;нет;ресторан;город москва, малый татарский переулок, дом 8, строение 1;46;малый татарский переулок;37.632251 55.737968;район Замоскворечье
2070;столовая;нет;столовая;город москва, 2-й новокузнецкий переулок, дом 13/15, строение 1;80;2-й новокузнецкий переулок;37.631775 55.734004;район Замоскворечье
2073;ресторан золберг;нет;ресторан;город москва, 1-й люсиновский переулок, дом 3б;60;1-й люсиновский переулок;37.621741 55.727526;район Замоскворечье
2103;ухтомская усадьба;нет;ресторан;город москва, лениногорская улица, дом 32, строение 1;42;лениногорская улица;37.865265 55.698777;район Косино-Ухтомский
2104;премьер пицца;нет;предприятие быстрого обслуживания;город москва, прокатная улица, дом 7;0;прокатная улица;37.836645 55.760114;район Ивановское
2186;гбоу школа № 1236;нет;столовая;город москва, улица гончарова, дом 15б;60;улица гончарова;37.586823 55.817668;Бутырский район
2197;столовая при колледже № 21;нет;столовая;город москва, вербная улица, дом 4, строение 1;252;вербная улица;37.776745 55.824319;район Метрогородок
2202;столовая 1404;нет;столовая;город москва, большая ширяевская улица, дом 11;80;большая ширяевская улица;37.687722 55.809332;район Сокольники
2208;школьная столовая № 1210;нет;столовая;город москва, улица гамалеи, дом 17, корпус 1;95;улица гамалеи;37.457124 55.800195;район Щукино
2260;антикинотеатр «newtone»;нет;кафе;город москва, хлебный переулок, дом 2/3, строение 3;25;хлебный переулок;37.597648 55.754664;Пресненский район
2365;мнити;нет;столовая;город москва, гольяновская улица, дом 7а, строение 1;70;гольяновская улица;37.712012 55.774862;Басманный район
2369;школа 354;нет;столовая;город москва, лефортовский переулок, дом 8, строение 1;40;лефортовский переулок;37.677373 55.769732;Басманный район
2407;школа;нет;столовая;город москва, средний кондратьевский переулок, дом 8а;60;средний кондратьевский переулок;37.577939 55.772725;Пресненский район
2409;школа;нет;столовая;город москва, улица подвойского, дом 2;200;улица подвойского;37.536463 55.758939;Пресненский район
2430;кафе;нет;кафе;город москва, изваринская улица, дом 4, корпус 1;45;изваринская улица;37.251338 55.612863;район Внуково
2431;столовая;нет;столовая;город москва, дивизионная улица, дом 4;80;дивизионная улица;37.261831 55.611694;район Внуково
2451;столовая;нет;столовая;город москва, пулковская улица, дом 6;50;пулковская улица;37.487793 55.844935;Головинский район
2504;столовая школы 900;нет;столовая;город москва, 3-й дорожный проезд, дом 6а;240;3-й дорожный проезд;37.614806 55.599967;район Чертаново Южное
2518;ресторан «тэсти»;нет;предприятие быстрого обслуживания;город москва, кожевнический проезд, дом 4/5, строение 5;200;кожевнический проезд;37.644791 55.730482;район Замоскворечье
2528;оазис;нет;кафе;город москва, улица рокотова, дом 2а;80;улица рокотова;37.554906 55.612004;район Ясенево
2568;территория ясенево;да;ресторан;город москва, ясногорская улица, дом 2;200;ясногорская улица;37.536428 55.61027;район Ясенево
2609;гбоу школа № 626 структурное подразделение «ремизово»;нет;столовая;город москва, улица ремизова, дом 12;80;улица ремизова;37.601573 55.675306;район Котловка
2615;гбоудо «севастополец»;нет;столовая;город москва, большая юшуньская улица, дом 14;55;большая юшуньская улица;37.590452 55.64795;район Зюзино
2638;столовая;нет;столовая;город москва, солнечногорский проезд, дом 7а;184;солнечногорский проезд;37.52466 55.859165;Головинский район
2667;буфет в техникуме;нет;буфет;город москва, стандартная улица, дом 4а;60;стандартная улица;37.572351 55.882868;Алтуфьевский район
2679;столовая цо 1402;нет;столовая;город москва, 2-я сокольническая улица, дом 3;60;2-я сокольническая улица;37.683634 55.787928;район Сокольники
2683;при вечерней школе 148;нет;столовая;город москва, 2-я гражданская улица, дом 8;50;2-я гражданская улица;37.701062 55.813647;район Богородское
2685;при школе 382;нет;столовая;город москва, андреево-забелинская улица, дом 28;120;андреево-забелинская улица;37.71071 55.81561;район Богородское
2690;при школе 374;нет;буфет;город москва, миллионная улица, дом 5;125;миллионная улица;37.697963 55.816252;район Богородское
2699;при школе 363;нет;буфет;город москва, алымов переулок, дом 15;120;алымов переулок;37.712461 55.807193;район Богородское
2700;при школе 365;нет;буфет;город москва, 5-й проезд подбельского, дом 2;90;5-й проезд подбельского;37.728685 55.817314;район Богородское
2712;стол. шк. 163;нет;столовая;город москва, линейный проезд, дом 11;200;линейный проезд;37.573474 55.842292;Тимирязевский район
2713;гбоу школа №771;нет;столовая;город москва, икшинская улица, дом 12;247;икшинская улица;37.537425 55.886276;Дмитровский район
2714;стол. шк. 929;нет;столовая;город москва, улица немчинова, дом 8;140;улица немчинова;37.567491 55.823955;Тимирязевский район
2726;гбоу школа дмитровский;нет;столовая;город москва, вагоноремонтная улица, дом 15а;247;вагоноремонтная улица;37.532762 55.896413;Дмитровский район
2727;стол.школы 1592 кшп «логарифм»;нет;столовая;город москва, бескудниковский проезд, дом 4а;240;бескудниковский проезд;37.55452 55.874905;Бескудниковский район
2728;стол.шк.n208 гуп«школьное питание»;нет;столовая;город москва, бескудниковский переулок, дом 4а;240;бескудниковский переулок;37.556882 55.862868;Бескудниковский район
2736;стол. шк.207;нет;столовая;город москва, астрадамский проезд, дом 5;60;астрадамский проезд;37.560431 55.812651;Тимирязевский район
2737;гбоу школа дмитровский;нет;столовая;город москва, карельский бульвар, дом 20;67;карельский бульвар;37.538018 55.895454;Дмитровский район
2741;апрель;нет;ресторан;город москва, живарев переулок, дом 8, строение 3;80;живарев переулок;37.643552 55.776634;Красносельский район
2751;гбоу пушкинская школа № 1500;нет;столовая;город москва, скорняжный переулок, дом 3, строение 1;150;скорняжный переулок;37.642339 55.773256;Красносельский район
2754;graff lounge;нет;ресторан;город москва, 1-й коптельский переулок, дом 2/7, строение 1;45;1-й коптельский переулок;37.637847 55.772507;Красносельский район
2782;буфет № 6 ргау-мсха им. к.а. тимирязева;нет;буфет;город москва, тимирязевский проезд, дом 2;16;тимирязевский проезд;37.552085 55.833976;Тимирязевский район
2842;лоза;нет;кафе;город москва, институтский переулок, дом 2;50;институтский переулок;37.614545 55.784415;район Марьина Роща
2852;гбоу многопрофильный лицей № 1501;нет;буфет;город москва, улица достоевского, дом 25, строение 1;60;улица достоевского;37.606784 55.783818;Тверской район
2894;спорт-бар гладиатор;нет;бар;город москва, улица фонвизина, дом 17;15;улица фонвизина;37.586994 55.821092;Бутырский район
2926;да пино;да;ресторан;город москва, делегатская улица, дом 7, строение 1;145;делегатская улица;37.612057 55.775869;Тверской район
2937;столовая школы 12;нет;столовая;город москва, 2-й сетуньский проезд, дом 9;250;2-й сетуньский проезд;37.533005 55.73072;район Раменки
2956;школа № 706 (доготовочная столовая);нет;столовая;город москва, песчаный переулок, дом 6;140;песчаный переулок;37.508418 55.799684;район Сокол
2965;буфет школы 153;нет;буфет;город москва, прибрежный проезд, дом 12;90;прибрежный проезд;37.465263 55.873405;район Левобережный
2997;кафе «восточная сказка»;нет;кафе;город москва, 3-я подрезковская улица, дом 14, строение 2;60;3-я подрезковская улица;37.356091 55.940573;Молжаниновский район
3011;столовая гимназии 1570;нет;буфет;город москва, переулок расковой, дом 14а;70;переулок расковой;37.576331 55.78645;район Беговой
3025;школа 1012;нет;столовая;город москва, родниковая улица, дом 20, корпус 1;320;родниковая улица;37.380992 55.634278;район Солнцево
3037;школьно-базовая столовая;нет;столовая;город москва, большая бутовская улица, дом 9;120;большая бутовская улица;37.581855 55.543318;район Южное Бутово
3042;цо №1450 «комбинат дошкольного питания»;нет;столовая;город москва, фруктовая улица, дом 9;300;фруктовая улица;37.612308 55.658439;Нагорный район
3045;офицерское собрание ресторан;нет;ресторан;город москва, черниговский переулок, дом 9/13, строение 2;30;черниговский переулок;37.625981 55.743497;район Замоскворечье
3053;буфет полиграфического колледжа 56;нет;буфет;город москва, полтавская улица, дом 3;120;полтавская улица;37.573088 55.793677;Савёловский район
3066;бар (закрытое);нет;буфет;город москва, пыжёвский переулок, дом 5, строение 1;30;пыжёвский переулок;37.622306 55.738982;район Якиманка
3071;столовая «анокпумгкэит»;нет;столовая;город москва, улица академика петровского, дом 10;150;улица академика петровского;37.60735 55.718953;Донской район
3123;nook cofee;нет;кафе;город москва, нелидовская улица, дом 10, строение 1;14;нелидовская улица;37.442949 55.846067;район Южное Тушино
3124;школа № 1431;нет;столовая;город москва, 1-й тушинский проезд, дом 12;240;1-й тушинский проезд;37.418308 55.833809;район Покровское-Стрешнево
3127;кафе;нет;кафе;город москва, проезд досфлота, дом 2, строение 1;24;проезд досфлота;37.459235 55.840841;район Южное Тушино
3143;школа № 830 корпус № 4;нет;столовая;город москва, врачебный проезд, дом 12;210;врачебный проезд;37.458984 55.813642;район Покровское-Стрешнево
3162;ярославский посад;нет;буфет;город москва, 3-й стрелецкий проезд, дом 3;36;3-й стрелецкий проезд;37.6047 55.795357;район Марьина Роща
3199;принцесса;нет;ресторан;город москва, попов проезд, дом 2;200;попов проезд;37.697442 55.783185;район Сокольники
3201;кафе;нет;кафе;город москва, 1-я боевская улица, дом 6;44;1-я боевская улица;37.692815 55.791805;район Сокольники
3220;столовая школы 380;нет;столовая;город москва, 2-я улица бухвостова, дом 6;100;2-я улица бухвостова;37.707557 55.798161;район Преображенское
3254;школьная столовая № 1874;нет;столовая;город москва, улица маршала новикова, дом 13;170;улица маршала новикова;37.463143 55.803074;район Щукино
3256;столовая гбоу школа № 1560 «лидер»;нет;столовая;город москва, новохорошёвский проезд, дом 12;250;новохорошёвский проезд;37.496075 55.779656;район Хорошёво-Мнёвники
3276;столовая института мировых цивилизаций;нет;столовая;город москва, 1-й басманный переулок, дом 3, строение 1;50;1-й басманный переулок;37.662838 55.770785;Красносельский район
3289;9bar;нет;кафетерий;город москва, стромынский переулок, дом 4;0;стромынский переулок;37.694055 55.793085;район Сокольники
3296;кафе «хомяк»;нет;кафе;город москва, заводской проезд, дом 25;35;заводской проезд;37.789663 55.790241;район Измайлово
3301;столовая при школе 1362;нет;столовая;город москва, лечебная улица, дом 20;80;лечебная улица;37.740812 55.78978;район Соколиная Гора
3320;столовая при школе интернат № 53;нет;столовая;город москва, кирпичная улица, дом 18;150;кирпичная улица;37.728658 55.776801;район Соколиная Гора
3332;сэлтинс;нет;буфет;город москва, стрелецкая улица, дом 2, строение 1;28;стрелецкая улица;37.597818 55.795545;район Марьина Роща
3336;гбоу школа №2200;нет;столовая;город москва, 11-я парковая улица, дом 50;112;11-я парковая улица;37.806299 55.807294;район Северное Измайлово
3338;столовая при колледже;нет;столовая;город москва, 14-я парковая улица, дом 4б;100;14-я парковая улица;37.816612 55.789932;район Восточное Измайлово
3345;столовая школы 434;нет;столовая;город москва, улица благуша, дом 6;80;улица благуша;37.723663 55.780532;
3349;столовая при школе 1056;нет;столовая;город москва, штурвальная улица, дом 7, корпус 2;240;штурвальная улица;37.444018 55.848316;район Южное Тушино
3350;алеся;нет;столовая;город москва, минаевский переулок, дом 2;60;минаевский переулок;37.602813 55.789218;район Марьина Роща
3359;бабу;нет;кафе;город москва, щёлковский проезд, дом 13;44;щёлковский проезд;37.777176 55.807122;район Северное Измайлово
3360;кафе «сочи»;нет;кафе;город москва, мажоров переулок, дом 5;15;мажоров переулок;37.711518 55.78237;район Соколиная Гора
3367;кофе-хаус;да;кафе;город москва, измайловская площадь, дом 1а;98;измайловская площадь;37.775981 55.79266;район Измайлово
3371;цо 345;нет;столовая;город москва, елоховский проезд, дом 1, строение 5;100;елоховский проезд;37.672666 55.772998;Басманный район
3375;школа 1204;нет;буфет;город москва, рубцов переулок, дом 10/14;77;рубцов переулок;37.691638 55.772861;Басманный район
3381;мосводоканал;нет;столовая;город москва, плетешковский переулок, дом 2;90;плетешковский переулок;37.674409 55.771408;Басманный район
3388;школа №87;нет;столовая;город москва, улица николаева, дом 5;40;улица николаева;37.568138 55.756523;Пресненский район
3391;малыш и карлсон;нет;буфет;город москва, триумфальная площадь, дом 2, строение 1;15;триумфальная площадь;37.595402 55.768264;Тверской район
3442;префектура;нет;столовая;город москва, город зеленоград, центральный проспект, дом 1;100;центральный проспект;37.214768 55.990695;район Савёлки
3465;буфет медицинского училища при гкб им. боткина;нет;буфет;город москва, 2-й боткинский проезд, дом 5, корпус 28;40;2-й боткинский проезд;37.548456 55.78074;район Беговой
3527;буфет;нет;буфет;город москва, мамоновский переулок, дом 10, строение 1;4;мамоновский переулок;37.599876 55.766228;Тверской район
3529;золотой дракон;нет;кафе;город москва, дегтярный переулок, дом 6, строение 1;86;дегтярный переулок;37.603684 55.768547;Тверской район
3530;ливанец;нет;кафе;город москва, глинищевский переулок, дом 3;98;глинищевский переулок;37.609775 55.763265;Тверской район
3597;гарден;нет;ресторан;город москва, 3-я песчаная улица, дом 2;80;3-я песчаная улица;37.51785 55.792645;Хорошёвский район
3619;обломов;нет;ресторан;город москва, 1-й монетчиковский переулок, дом 5, строение 1;75;1-й монетчиковский переулок;37.628316 55.732256;район Замоскворечье
3621;квартира 44;да;кафе;город москва, улица малая ордынка, дом 24;38;улица малая ордынка;37.625208 55.735459;район Замоскворечье
3624;школа 540 «кдп»;нет;столовая;город москва, хавская улица, дом 15;200;хавская улица;37.614276 55.713446;Даниловский район
3630;кафе «ванадис»;нет;кафе;город москва, жуков проезд, дом 8, строение 3;30;жуков проезд;37.646229 55.721975;Даниловский район
3633;ирландский паб белфаст;нет;кафе;город москва, средний овчинниковский переулок, дом 1, строение 13;40;средний овчинниковский переулок;37.630652 55.745134;район Замоскворечье
3639;школа 573 «кдп»;нет;столовая;город москва, 5-й рощинский проезд, дом 4;120;5-й рощинский проезд;37.612173 55.710626;Даниловский район
3642;солнечный очаг;нет;ресторан;город москва, улица богданова, дом 56б;60;улица богданова;37.392661 55.647686;район Солнцево
3652;школа 1000;нет;столовая;город москва, наро-фоминская улица, дом 1;130;наро-фоминская улица;37.390604 55.657733;район Солнцево
3653;школа 1009;нет;столовая;город москва, улица щорса, дом 5;200;улица щорса;37.407681 55.646492;район Солнцево
3670;mojo;нет;кафе;город москва, сверчков переулок, дом 8, строение 1;63;сверчков переулок;37.639878 55.760226;Басманный район
3701;eleven-hall;нет;ресторан;город москва, малый каретный переулок, дом 11, строение 2;100;малый каретный переулок;37.614806 55.771327;Тверской район
3713;осипов а.с. (прод.база «очаково»);нет;столовая;город москва, проектируемый проезд № 1980, дом 4;60;проектируемый проезд № 1980;37.43728 55.67225;район Очаково-Матвеевское
3754;моск. гор. колледж инф-х технологий;нет;столовая;город москва, костомаровская набережная, дом 29, строение 1;84;костомаровская набережная;37.668695 55.750428;Таганский район
3755;гостиница лефортово;нет;ресторан;город москва, 1-й краснокурсантский проезд, дом 1/4;200;1-й краснокурсантский проезд;37.689761 55.758149;район Лефортово
3756;столовая при ммгп «мосгаз» буфет;нет;столовая;город москва, мрузовский переулок, дом 11, строение 1;30;мрузовский переулок;37.66742 55.757445;Басманный район
3760;полковнику никто не пишет;нет;кафе;город москва, петроверигский переулок, дом 4, строение 1;44;петроверигский переулок;37.636608 55.756791;Басманный район
3763;школа 1227;нет;буфет;город москва, большой трёхсвятительский переулок, дом 4;55;большой трёхсвятительский переулок;37.646049 55.754978;Басманный район
3765;школа 330;нет;буфет;город москва, большой казённый переулок, дом 9;55;большой казённый переулок;37.655634 55.760373;Басманный район
3766;лицей 1303;нет;столовая;город москва, таможенный проезд, дом 4;170;таможенный проезд;37.67917 55.751852;район Лефортово
3768;школа 1229;нет;столовая;город москва, верхний золоторожский переулок, дом 2;170;верхний золоторожский переулок;37.679287 55.750388;район Лефортово
3775;школа 416;нет;столовая;город москва, шепелюгинская улица, дом 21/13, строение 1;150;шепелюгинская улица;37.703631 55.745144;район Лефортово
3776;школа 733;нет;столовая;город москва, лонгиновская улица, дом 6;120;лонгиновская улица;37.711455 55.767372;район Лефортово
3784;столовая при фгбоу во мпгу;нет;столовая;город москва, несвижский переулок, дом 3;26;несвижский переулок;37.588081 55.731764;район Хамовники
3841;столовая при гбоу лицей 1555;нет;столовая;город москва, хилков переулок, дом 3а;45;хилков переулок;37.598079 55.737193;район Хамовники
3844;столовая при гбоу лицей 1535;нет;столовая;город москва, малый саввинский переулок, дом 8;105;малый саввинский переулок;37.562137 55.731054;район Хамовники
3852;столовая при образовательном комплексе дизайна и технологии;нет;столовая;город москва, улица савельева, дом 5;100;улица савельева;37.562892 55.722482;район Хамовники
3853;столовая при гбоу школа 57;нет;столовая;город москва, переулок хользунова, дом 8;48;переулок хользунова;37.580499 55.730096;район Хамовники
3872;столовая при гимназии 1529 им. а.с. грибоедова;нет;столовая;город москва, 2-й обыденский переулок, дом 9;30;2-й обыденский переулок;37.603505 55.741333;район Хамовники
3875;буфет на хитровке;нет;кафе;город москва, хитровский переулок, дом 3/1, строение 4;12;хитровский переулок;37.643363 55.753402;Басманный район
3891;столовая при управлении судебного департамента;нет;столовая;город москва, андроньевская площадь, дом 5/9;45;андроньевская площадь;37.669477 55.747211;Таганский район
3910;ред брик;нет;бар;город москва, хохловский переулок, дом 10, строение 6;50;хохловский переулок;37.644091 55.755925;Басманный район
3954;столовая при шк. 2093 (783);нет;столовая;город москва, союзный проспект, дом 2;240;союзный проспект;37.80338 55.750459;район Новогиреево
3975;столовая при шк. 2072;нет;столовая;город москва, утренняя улица, дом 12;200;утренняя улица;37.792753 55.74747;район Новогиреево
3994;столовая при шк. 2093 (787);нет;столовая;город москва, улица алексея дикого, дом 18а;150;улица алексея дикого;37.810557 55.746375;район Новогиреево
4134;школа 2104;нет;столовая;город москва, 1-й котельнический переулок, дом 5, строение 2;35;1-й котельнический переулок;37.645375 55.74371;Таганский район
4156;школа №1272;нет;столовая;город москва, 1-й кожуховский проезд, дом 17;120;1-й кожуховский проезд;37.663925 55.70807;Даниловский район
4157;школа 574 кдп;нет;столовая;город москва, высокая улица, дом 6;210;высокая улица;37.654385 55.679052;район Нагатино-Садовники
4171;донер бистро;нет;предприятие быстрого обслуживания;город москва, гончарная набережная, дом 9/16, строение 3;0;гончарная набережная;37.64869 55.737481;Таганский район
4176;гбоу школа №498;нет;столовая;город москва, улица малые каменщики, дом 18;0;улица малые каменщики;37.654188 55.735555;Таганский район
4185;школа 485;нет;столовая;город москва, 3-й кожуховский проезд, дом 3а;120;3-й кожуховский проезд;37.675289 55.70777;Южнопортовый район
4197;столовая мгпу;нет;столовая;город москва, 2-й сельскохозяйственный проезд, дом 4, строение 1;150;2-й сельскохозяйственный проезд;37.642186 55.833648;район Ростокино
4199;цсо;нет;столовая;город москва, магаданская улица, дом 9;40;магаданская улица;37.684138 55.877859;Лосиноостровский район
4208;столовая (гбоу «школа №1558имени росалии де кастро»);нет;столовая;город москва, печорская улица, дом 18;300;печорская улица;37.657269 55.865869;Бабушкинский район
4209;столовая-доготовочная при школе 1099;нет;столовая;город москва, улица ротерта, дом 5;300;улица ротерта;37.724238 55.874137;Ярославский район
4214;школа 529;нет;столовая;город москва, 2-я напрудная улица, дом 17;240;2-я напрудная улица;37.688782 55.87944;Лосиноостровский район
4219;столовая (гбоу «школа №1095»);нет;столовая;город москва, олонецкий проезд, дом 6;240;олонецкий проезд;37.662946 55.874279;Бабушкинский район
4220;столовая (гбоу «школа №281»);нет;буфет;город москва, улица рудневой, дом 10;60;улица рудневой;37.677041 55.866586;Бабушкинский район
4222;столовая-доготовочная при школе 1374;нет;столовая;город москва, федоскинская улица, дом 4;240;федоскинская улица;37.703739 55.868773;Ярославский район
4226;школа 762;нет;столовая;город москва, норильская улица, дом 4;300;норильская улица;37.696453 55.875844;Лосиноостровский район
4239;светлана;нет;кафе;город москва, таёжная улица, дом 1;45;таёжная улица;37.700559 55.880904;Лосиноостровский район
4246;школа 1188;нет;столовая;город москва, 1-я напрудная улица, дом 13;300;1-я напрудная улица;37.691064 55.879884;Лосиноостровский район
4278;столовая при московском коледже железнодорожного транспорта;нет;столовая;город москва, кучин переулок, дом 14, строение 1;134;кучин переулок;37.640003 55.804111;Алексеевский район
4320;столовая «потенциал»;нет;столовая;город москва, кулаков переулок, дом 7;150;кулаков переулок;37.639473 55.804713;Алексеевский район
4324;столовая при школе № 2107;нет;буфет;город москва, напрудный переулок, дом 13;30;напрудный переулок;37.631182 55.78851;Мещанский район
4326;буфет при ржевской бане;нет;буфет;город москва, банный проезд, дом 3, строение 1;4;банный проезд;37.631137 55.786814;Мещанский район
4338;столовая при школе № 2107;нет;буфет;город москва, переулок васнецова, дом 2;43;переулок васнецова;37.625783 55.775697;Мещанский район
4346;буфет-раздаточный при школе № 242;нет;буфет;город москва, 1-й проезд марьиной рощи, дом 3а;50;1-й проезд марьиной рощи;37.621696 55.793748;район Марьина Роща
4347;столовая при школе № 1297;нет;буфет;город москва, малая переяславская улица, дом 6/8;83;малая переяславская улица;37.63765 55.789406;Мещанский район
4354;столовая при гбоу школа № 1539;нет;столовая;город москва, староалексеевская улица, дом 1;200;староалексеевская улица;37.641836 55.810324;Алексеевский район
4356;столовая при школе № 2107;нет;буфет;город москва, больничный переулок, дом 4;34;больничный переулок;37.632053 55.785564;Мещанский район
4357;столовая при школе №1297;нет;столовая;город москва, глинистый переулок, дом 7, строение 1;140;глинистый переулок;37.63729 55.787548;Мещанский район
4367;столовая;нет;столовая;город москва, 3-я черепковская улица, дом 15а, строение 5;244;3-я черепковская улица;37.376258 55.755621;район Кунцево
4406;столовая гбоу города москвы № 587;нет;столовая;город москва, улица красных зорь, дом 61;110;улица красных зорь;37.426914 55.724713;Можайский район
4408;столовая гбпоу зкно;нет;столовая;город москва, улица ращупкина, дом 3;180;улица ращупкина;37.443982 55.724794;Можайский район
4409;столовая гбоу города москвы № 1400;нет;столовая;город москва, улица кубинка, дом 20, корпус 1;200;улица кубинка;37.408346 55.722974;Можайский район
4410;столовая гбоу города москвы № 1400;нет;столовая;город москва, улица кутузова, дом 20;120;улица кутузова;37.414499 55.72271;Можайский район
4411;столовая гбпоу зкно;нет;буфет;город москва, гродненская улица, дом 5;150;гродненская улица;37.435376 55.71769;Можайский район
4426;столовая гбоу города москвы № 391;нет;буфет;город москва, гжатская улица, дом 6;90;гжатская улица;37.440496 55.715799;Можайский район
4429;столовая гбоу города москвы № 1195;нет;буфет;город москва, вяземская улица, дом 7;100;вяземская улица;37.405534 55.712695;Можайский район
4435;буфет - гбоу сош №6;нет;буфет;город москва, улица екатерины будановой, дом 18;60;улица екатерины будановой;37.43322 55.729787;район Кунцево
4459;останкино;нет;закусочная;город москва, троилинский переулок, дом 3;25;троилинский переулок;37.58411 55.748037;район Арбат
4474;бабель;нет;ресторан;город москва, 1-й николощеповский переулок, дом 6, строение 2;140;1-й николощеповский переулок;37.580544 55.748706;район Арбат
4475;ля марэ;нет;ресторан;город москва, проточный переулок, дом 7;150;проточный переулок;37.58058 55.750165;район Арбат
4541;буфет-раздаточная № 731;нет;буфет;город москва, новорублёвская улица, дом 1;80;новорублёвская улица;37.36175 55.786996;район Кунцево
4574;школа 913;нет;буфет;город москва, улица степана шутова, дом 8, корпус 3;120;улица степана шутова;37.809686 55.674255;район Люблино
4576;школа № 439 ителлект;нет;столовая;город москва, орехово-зуевский проезд, дом 4;40;орехово-зуевский проезд;37.745367 55.731206;Нижегородский район
4579;столовая гну виэсх;нет;столовая;город москва, 1-й вешняковский проезд, дом 2, строение 1;20;1-й вешняковский проезд;37.78792 55.724312;Рязанский район
4584;palacio;нет;ресторан;город москва, улица паперника, дом 9;30;улица паперника;37.787084 55.720859;Рязанский район
4588;столовая спец.база атп-3 мосводоканал;нет;столовая;город москва, шоссе фрезер, дом 32, строение 1;10;шоссе фрезер;37.732817 55.734476;Нижегородский район
4596;столовая уоо цсбофнпр;нет;буфет;город москва, тихая улица, дом 30;120;тихая улица;37.747963 55.684686;район Люблино
4633;школа 335;нет;буфет;город москва, спортивный проезд, дом 3а;190;спортивный проезд;37.753847 55.684199;район Люблино
4650;школа 338;нет;буфет;город москва, мариупольская улица, дом 3;250;мариупольская улица;37.741351 55.674966;район Люблино
4652;гп шбс «люблино» шк. 654ст;нет;столовая;город москва, улица артюхиной, дом 17;220;улица артюхиной;37.739869 55.697488;район Текстильщики
4656;столовая при гоу сош № 495;нет;столовая;город москва, подольская улица, дом 15;160;подольская улица;37.71345 55.65178;район Марьино
4660;филиал шбс люблино шк. 493;нет;столовая;город москва, 1-й курьяновский проезд, дом 14;224;1-й курьяновский проезд;37.699517 55.657362;район Печатники
4676;коникс-школьник школа 1403;нет;столовая;город москва, 1-й саратовский проезд, дом 5;89;1-й саратовский проезд;37.736339 55.71163;район Текстильщики
4700;стумари;нет;кафе;город москва, тессинский переулок, дом 4, строение 2;55;тессинский переулок;37.6494 55.750287;Таганский район
4715;пу 33;нет;столовая;город москва, тетеринский переулок, дом 2а;100;тетеринский переулок;37.650145 55.745341;Таганский район
4718;школа 1468;нет;буфет;город москва, библиотечная улица, дом 29;33;библиотечная улица;37.676717 55.745199;Таганский район
4721;моск. гос. авиац.-технологич. университет;нет;буфет;город москва, берниковская набережная, дом 12, строение 1;32;берниковская набережная;37.651385 55.748812;Таганский район
4725;центральный дом адвоката;нет;столовая;город москва, малый полуярославский переулок, дом 3/5, строение 1;62;малый полуярославский переулок;37.661033 55.752237;Таганский район
4729;лицей №1581;нет;столовая;город москва, большой полуярославский переулок, дом 7;55;большой полуярославский переулок;37.663243 55.752607;Таганский район
4736;гбоу школа №480 им.в.в. талалихина;нет;столовая;город москва, стройковская улица, дом 5;0;стройковская улица;37.67502 55.733457;Таганский район
4802;8-ой троллейбусный парк;нет;буфет;город москва, улица инессы арманд, дом 13;31;улица инессы арманд;37.546884 55.589274;район Ясенево
4805;гоу сош № 1174;нет;столовая;город москва, феодосийская улица, дом 11а;157;феодосийская улица;37.575603 55.5636;район Северное Бутово
4817;пекарня;нет;магазин (отдел кулинарии);город москва, 1-й кирпичный переулок, дом 4, строение 2;10;1-й кирпичный переулок;37.73217 55.778051;район Соколиная Гора
4832;кафе гермес;нет;кафе;город москва, учинская улица, дом 10;85;учинская улица;37.537119 55.885181;Дмитровский район
4839;марма;нет;столовая;город москва, нарвская улица, дом 2;45;нарвская улица;37.508759 55.833607;район Коптево
4860;столовая (гбоу «школа №1558 имени росалии де кастро»);нет;столовая;город москва, чукотский проезд, дом 6;260;чукотский проезд;37.654089 55.868162;Бабушкинский район
4882;столовая;нет;ресторан;город москва, кремлёвская набережная, дом 1, строение 2;56;кремлёвская набережная;37.60947 55.746937;район Хамовники
4891;столовая при мз электропривод;нет;столовая;город москва, улица уткина, дом 48;20;улица уткина;37.744971 55.759532;район Соколиная Гора
4894;райский уголок;нет;кафе;город москва, боровский проезд, дом 17а;96;боровский проезд;37.38207 55.652258;район Солнцево
4895;вэрон;нет;столовая;город москва, улица академика павлова, дом 25;80;улица академика павлова;37.407573 55.748756;район Кунцево
4896;столовая;нет;столовая;город москва, проезд черепановых, дом 6, строение 1;50;проезд черепановых;37.512802 55.833364;район Коптево
4924;bodrum;нет;кафе;город москва, улица новая дорога, дом 11, строение 6;60;улица новая дорога;37.702499 55.774608;Басманный район
4940;кофе он;нет;кафе;город москва, 3-й кадашёвский переулок, дом 2;72;3-й кадашёвский переулок;37.624202 55.742407;район Якиманка
4947;столовая;нет;столовая;город москва, чермянская улица, дом 2, строение 2;200;чермянская улица;37.638117 55.885241;район Северное Медведково
5102;столовая центра «зубаревский»;нет;столовая;город москва, зубарев переулок, дом 15, корпус 1;47;зубарев переулок;37.642537 55.811508;Алексеевский район
5109;world class кафе;нет;бар;город москва, 12-й проезд марьиной рощи, владение 9, строение 2;9;12-й проезд марьиной рощи;37.618417 55.80445;район Марьина Роща
5118;хаят;нет;кафе;город москва, выползов переулок, дом 7, строение 2;68;выползов переулок;37.626861 55.779469;Мещанский район
5122;рус сервис;нет;столовая;город москва, анненский проезд, дом 1, строение 1;40;анненский проезд;37.607637 55.802133;район Марьина Роща
5130;столовая;нет;столовая;город москва, анненская улица, дом 25, строение 1;32;анненская улица;37.608949 55.806211;район Марьина Роща
5160;антик;нет;ресторан;город москва, чермянский проезд, дом 5, строение 26;70;чермянский проезд;37.634946 55.887599;район Северное Медведково
5167;столовая-доготовочная при школе № 1956;нет;столовая;город москва, старомарьинское шоссе, дом 5;250;старомарьинское шоссе;37.610485 55.80316;район Марьина Роща
5177;столовая завода стройпрогресс;нет;столовая;город москва, калибровская улица, дом 31, строение 1;45;калибровская улица;37.624965 55.808199;Останкинский район
5178;столовая вниси;нет;столовая;город москва, 1-й рижский переулок, дом 6, строение 1;112;1-й рижский переулок;37.652319 55.806611;Алексеевский район
5222;кафе;нет;кафе;город москва, хованская улица, владение 20;40;хованская улица;37.622585 55.828576;Останкинский район
5276;кафе пармежано;нет;кафе;город москва, отрадный проезд, дом 2б;60;отрадный проезд;37.607421 55.853132;район Отрадное
5280;столовая-доготовочная при школе 1137;нет;столовая;город москва, лосевская улица, дом 9;250;лосевская улица;37.714752 55.877824;Ярославский район
5289;гбоу школа № 1499;нет;столовая;город москва, ростокинская улица, дом 3;330;ростокинская улица;37.660727 55.835432;район Ростокино
5291;столовая;нет;столовая;город москва, 1-й сельскохозяйственный проезд, дом 2;46;1-й сельскохозяйственный проезд;37.647082 55.83248;район Ростокино
5299;кафе-бар курага;нет;кафе;город москва, юрловский проезд, дом 17, строение 1;229;юрловский проезд;37.618965 55.870698;район Отрадное
5301;буфет при гуп «объединенный комбинат школьно питания»;нет;столовая;город москва, 1-й ботанический проезд, дом 2;40;1-й ботанический проезд;37.635979 55.850707;район Свиблово
5373;ук стратегия управления;нет;кафе;город москва, 17-й проезд марьиной рощи, дом 4;94;17-й проезд марьиной рощи;37.61123 55.808553;район Марьина Роща
5445;столовая;нет;столовая;город москва, уржумская улица, дом 4, строение 14;124;уржумская улица;37.667168 55.851839;район Свиблово
5446;юлдес-тур;нет;столовая;город москва, 2-я ямская улица, дом 4;32;2-я ямская улица;37.608293 55.794629;район Марьина Роща
5452;кафе рача;нет;кафе;город москва, улица константинова, дом 11а;40;улица константинова;37.655248 55.816874;Алексеевский район
5468;океан;нет;кафе;город москва, черницынский проезд, дом 3, строение 11;64;черницынский проезд;37.792654 55.819075;район Гольяново
5491;при школе 1452;нет;столовая;город москва, 1-я гражданская улица, дом 96;160;1-я гражданская улица;37.709012 55.807223;район Богородское
5522;столовая;нет;столовая;город москва, 2-й иртышский проезд, дом 6, строение 1;64;2-й иртышский проезд;37.765758 55.812772;район Гольяново
5533;столовая;нет;кафе;город москва, 1-я пугачёвская улица, дом 25, строение 1;32;1-я пугачёвская улица;37.732126 55.795064;район Преображенское
5540;шумкина 26;нет;кафе;город москва, улица шумкина, дом 26а, строение 4;45;улица шумкина;37.673412 55.786723;район Сокольники
5544;кайф кормить;нет;столовая;город москва, улица богородский вал, дом 3, строение 28;30;улица богородский вал;37.701529 55.803509;район Богородское
5551;ереван;нет;ресторан;город москва, оренбургская улица, дом 32, строение 5;45;оренбургская улица;37.875901 55.711032;район Косино-Ухтомский
5563;столовая «ооо вито-1»;нет;столовая;город москва, улица медведева, дом 6;120;улица медведева;37.883671 55.717366;район Косино-Ухтомский
5583;столовая шк.364;нет;столовая;город москва, старослободская улица, дом 8;200;старослободская улица;37.669711 55.789836;район Сокольники
5592;буфет-раздаточная;нет;буфет;город москва, гаражная улица, дом 4;28;гаражная улица;37.742142 55.759091;район Соколиная Гора
5612;кафе -бар;нет;буфет;город москва, улица 9 мая, дом 8;6;улица 9 мая;37.86469 55.816161;район Восточный
5667;столовая;нет;столовая;город москва, барабанный переулок, дом 3;60;барабанный переулок;37.707673 55.783139;район Соколиная Гора
5708;березки;нет;кафе;город москва, курганская улица, дом 4а;90;курганская улица;37.815938 55.829426;район Гольяново
5712;кафе «черный кот»;нет;кафе;город москва, нижний журавлёв переулок, дом 3;20;нижний журавлёв переулок;37.706164 55.78359;район Соколиная Гора
5716;кафе при азс газпромнефть №134;нет;буфет;город москва, русаковская набережная, дом 7;18;русаковская набережная;37.698484 55.798323;район Сокольники
5725;ноу «мини-школа»;нет;буфет;город москва, кузьминская улица, дом 10, строение 2;50;кузьминская улица;37.786285 55.693378;район Кузьминки
5731;столовая при оао док-3;нет;столовая;город москва, 1-я карачаровская улица, дом 8, строение 1;31;1-я карачаровская улица;37.754035 55.73591;Нижегородский район
5734;столовая гоу 1083;нет;столовая;город москва, хвалынский бульвар, дом 4, корпус 4;200;хвалынский бульвар;37.849257 55.700121;район Выхино-Жулебино
5772;пролетарец;нет;столовая;город москва, новоостаповская улица, дом 12, строение 2;48;новоостаповская улица;37.671813 55.718233;Южнопортовый район
5826;столовая фгпу усст 2;нет;столовая;город москва, 2-й курьяновский проезд, дом 2;32;2-й курьяновский проезд;37.698762 55.652684;район Печатники
5828;харт-трейдинг лтд;нет;буфет;город москва, егорьевский проезд, дом 2, строение 5;30;егорьевский проезд;37.734865 55.671803;район Люблино
5842;ниипм;нет;столовая;город москва, перовский проезд, дом 35, строение 8;140;перовский проезд;37.710225 55.744358;район Лефортово
5848;столовая;нет;столовая;город москва, автомобильный проезд, дом 6, строение 2;48;автомобильный проезд;37.701143 55.729924;Нижегородский район
5853;кафе-бистро;нет;кафе;город москва, басовская улица, дом 16, строение 1;24;басовская улица;37.747568 55.738287;Нижегородский район
5857;мниипа;нет;столовая;город москва, красноказарменный проезд, дом 14а, корпус 19;180;красноказарменный проезд;37.706155 55.753909;район Лефортово
5901;всеросийская государственная налоговая академия;нет;столовая;город москва, 4-й вешняковский проезд, дом 4, строение 1;80;4-й вешняковский проезд;37.796445 55.718451;Рязанский район
5902;зарайский дворик;нет;кафе;город москва, зарайская улица, дом 33, корпус 2;44;зарайская улица;37.770699 55.729843;Рязанский район
5907;бризоль-м;нет;столовая;город москва, 4-я кабельная улица, дом 2а, строение 1;180;4-я кабельная улица;37.71875 55.740558;район Лефортово
5908;саят нова;нет;ресторан;город москва, улица капотня, дом 34;220;улица капотня;37.808428 55.639847;район Капотня
5910;школа 775;нет;буфет;город москва, армавирская улица, дом 4;210;армавирская улица;37.753398 55.67528;район Люблино
5935;а ля фуршет;нет;ресторан;город москва, сормовский проезд, дом 11, строение 8;60;сормовский проезд;37.804386 55.707111;район Выхино-Жулебино
5943;гбоу «многофункциональный образовательный комплекс «кузьминки»;нет;столовая;город москва, есенинский бульвар, дом 14, корпус 2;130;есенинский бульвар;37.774813 55.700547;район Кузьминки
5952;караван прожект;нет;ресторан;город москва, 2-й кабельный проезд, дом 1;91;2-й кабельный проезд;37.716297 55.747723;район Лефортово
5964;школа 509;нет;столовая;город москва, 6-я кожуховская улица, дом 8;215;6-я кожуховская улица;37.67219 55.706482;Южнопортовый район
5966;кафе-бар «жулебино»;нет;кафе;город москва, тарханская улица, дом 2;50;тарханская улица;37.858887 55.684686;район Выхино-Жулебино
5989;школа 469;нет;столовая;город москва, улица крутицкий вал, дом 5;240;улица крутицкий вал;37.666297 55.72928;Южнопортовый район
6030;школа № 1279;нет;столовая;город москва, сивашская улица, дом 2, корпус 1;70;сивашская улица;37.606236 55.660379;район Зюзино
6168;кантина кафе офис клуб;нет;кафе;город москва, научный проезд, дом 19;200;научный проезд;37.553963 55.653304;район Черёмушки
6212;школьно-базовая столовая;нет;столовая;город москва, 3-я железногорская улица, дом 11а;100;3-я железногорская улица;37.548267 55.5217;район Южное Бутово
6239;subway;да;предприятие быстрого обслуживания;город москва, новобутовский проезд, владение 9, строение 1;12;новобутовский проезд;37.558858 55.553732;район Южное Бутово
6240;школьно-базовая столовая;нет;столовая;город москва, улица академика понтрягина, дом 17, корпус 1;110;улица академика понтрягина;37.502813 55.533522;район Южное Бутово
6246;школьно-базовая столовая;нет;столовая;город москва, улица брусилова, дом 29, корпус 1;260;улица брусилова;37.592779 55.502079;район Южное Бутово
6276;соль и мясо;нет;кафе;город москва, синельниковская улица, дом 47;50;синельниковская улица;37.572423 55.542477;район Южное Бутово
6279;ст.шк.20 «школьник-юз»;нет;столовая;город москва, улица академика арцимовича, дом 7;240;улица академика арцимовича;37.515137 55.642159;район Коньково
6290;столовая при ну акушерства и гинекологии;нет;столовая;город москва, улица академика опарина, дом 4;80;улица академика опарина;37.49992 55.643856;Обручевский район
6394;столовая;нет;столовая;город москва, большая внуковская улица, дом 2а, строение 9;46;большая внуковская улица;37.29267 55.615207;район Внуково
6599;ансар;нет;кафе;город москва, улица клочкова, дом 10;25;улица клочкова;37.450683 55.726213;район Фили-Давыдково
6736;столовая гбпоу «мгтк имени л.а.филатова»;нет;столовая;город москва, волоцкой переулок, дом 15, корпус 2;250;волоцкой переулок;37.352048 55.832535;район Митино
6750;столовая гбоу сош № 1544;нет;столовая;город москва, пенягинская улица, дом 14;240;пенягинская улица;37.359513 55.836059;район Митино
6779;столовая при институте;нет;столовая;город москва, улица рогова, дом 5а;63;улица рогова;37.461688 55.793809;район Щукино
6786;кафе;нет;кафе;город москва, улица саляма адиля, дом 9, корпус 3;15;улица саляма адиля;37.464499 55.775069;район Хорошёво-Мнёвники
6788;столовая;нет;столовая;город москва, улица шеногина, дом 2;60;улица шеногина;37.509918 55.765164;район Хорошёво-Мнёвники
6792;столовая гбоу школа № 1985;нет;столовая;город москва, ландышевая улица, дом 8;192;ландышевая улица;37.392248 55.886963;район Куркино
6794;столовая гбоу сош № 1564;нет;столовая;город москва, улица рословка, дом 8;240;улица рословка;37.360457 55.830255;район Митино
6829;кафе на азс;нет;закусочная;город москва, улица зенитчиков, дом 7;2;улица зенитчиков;37.348123 55.834628;район Митино
6870;зодиак;да;бар;город москва, неманский проезд, дом 1;48;неманский проезд;37.393955 55.815903;район Строгино
7010;столовая школы № 1847;нет;столовая;город москва, малый коптевский проезд, дом 3;35;малый коптевский проезд;37.531451 55.809732;район Аэропорт
7048;столовая школы №152;нет;столовая;город москва, 1-я аэропортовская улица, дом 1, строение 3;120;1-я аэропортовская улица;37.534523 55.800878;район Аэропорт
7074;зао смк северная звезда;нет;кафе;город москва, песчаная улица, дом 2а, строение 4;36;песчаная улица;37.514922 55.803266;район Сокол
7097;мастер гурмэ;нет;кафе;город москва, театральная аллея, дом 3, строение 1;70;театральная аллея;37.559883 55.793227;район Аэропорт
7126;рамн;нет;кафе;город москва, балтийская улица, дом 10, корпус 2;26;балтийская улица;37.516665 55.810425;район Аэропорт
7182;бригантина;нет;кафе;город москва, коптевский бульвар, дом 18а, строение 1;40;коптевский бульвар;37.522728 55.832404;район Коптево
7198;столовая в школе 1912 ул.2 пятилетка д.18а (ранее школа 229);нет;столовая;город москва, город зеленоград, улица вторая пятилетка, дом 18а;180;улица вторая пятилетка;37.168478 55.979551;
7227;грин хаус;нет;кафе;город москва, город зеленоград, солнечная аллея, дом 8;70;солнечная аллея;37.203494 55.983469;
7235;ф-ка госзнак;нет;столовая;город москва, улица павла андреева, дом 27, строение 2;80;улица павла андреева;37.618722 55.719581;Даниловский район
7254;римини;нет;кафе;город москва, город зеленоград, озёрная аллея, дом 8;25;озёрная аллея;37.225134 55.986485;район Савёлки
7271;загорье шк. 902;нет;столовая;город москва, педагогическая улица, дом 3;240;педагогическая улица;37.666288 55.596122;район Бирюлёво Восточное
7289;столовая;нет;столовая;город москва, 2-й рощинский проезд, дом 8;8;2-й рощинский проезд;37.603002 55.706315;Донской район
7354;столовая «школа 982 кдп»;нет;столовая;город москва, улица кошкина, дом 13, корпус 2;300;улица кошкина;37.674678 55.640878;район Москворечье-Сабурово
7379;соц-психологическ. институт «коп зил»;нет;буфет;город москва, 4-й рощинский проезд, дом 11;16;4-й рощинский проезд;37.611643 55.707547;Даниловский район
7743;школа 567 кшп «загорье»;нет;столовая;город москва, черноморский бульвар, дом 8;240;черноморский бульвар;37.612317 55.646045;Нагорный район
7746;столовая;нет;столовая;город москва, 3-й павловский переулок, дом 2;100;3-й павловский переулок;37.628631 55.718877;Даниловский район
7778;пу 53;нет;столовая;город москва, улица лефортовский вал, дом 26;120;улица лефортовский вал;37.696346 55.755778;район Лефортово
7782;геронтологический центр переделкино;нет;столовая;город москва, 7-я улица лазенки, дом 12, строение 2;200;7-я улица лазенки;37.348904 55.661115;район Ново-Переделкино
7783;столовая;нет;столовая;город москва, интернациональная улица, дом 10;200;интернациональная улица;37.253117 55.613738;район Внуково
7784;ксц «переделкино»;нет;столовая;город москва, 6-я улица лазенки, дом 2, строение 2;232;6-я улица лазенки;37.367823 55.664208;район Ново-Переделкино
7794;сабрина;нет;кафе;город москва, аэрофлотская улица, владение 2б;24;аэрофлотская улица;37.292095 55.610387;район Внуково
7834;кафе-кальянная «мамуния»;нет;кафе;город москва, лыщиков переулок, дом 5, строение 1;55;лыщиков переулок;37.654457 55.747794;Таганский район
7869;ноев ковчег;нет;ресторан;город москва, малый ивановский переулок, дом 4, строение 1;100;малый ивановский переулок;37.640641 55.75364;Басманный район
7872;кафе гор;нет;кафе;город москва, сибирский проезд, дом 2, корпус 27, строение 1;40;сибирский проезд;37.682826 55.729838;Таганский район
7928;пельменьи;нет;кафе;город москва, улица фадеева, дом 5, строение 1;30;улица фадеева;37.598681 55.774406;Тверской район
7935;столовая шк 498;нет;столовая;город москва, 2-я дубровская улица, дом 3;80;2-я дубровская улица;37.671381 55.728986;Таганский район
7939;шелби;нет;кафе;город москва, 1-й голутвинский переулок, дом 6;22;1-й голутвинский переулок;37.613494 55.7396;район Якиманка
7943;теремок;да;предприятие быстрого обслуживания;город москва, гжельский переулок, дом 19, строение 2;39;гжельский переулок;37.680616 55.747647;Таганский район
7945;секретное место;нет;кафе;город москва, калошин переулок, дом 4, строение 1;39;калошин переулок;37.592545 55.747905;район Арбат
7952;гбоу многопрофильный лицей №1501;нет;столовая;город москва, тихвинский переулок, дом 3;140;тихвинский переулок;37.595761 55.787705;Тверской район
8016;артс палас;нет;ресторан;город москва, успенский переулок, дом 3, строение 4;98;успенский переулок;37.607116 55.769292;Тверской район
8025;бизнес центр таганский;нет;кафе;город москва, улица высоцкого, дом 4;80;улица высоцкого;37.652903 55.74373;Таганский район
8041;школа №136;нет;столовая;город москва, переулок красина, дом 16, строение 10;120;переулок красина;37.581954 55.767539;Пресненский район
8085;кантинетта антинори;нет;ресторан;город москва, денежный переулок, дом 20;80;денежный переулок;37.58676 55.745412;район Хамовники
8120;гбоу лицей 1574;нет;столовая;город москва, 1-я миусская улица, дом 4;120;1-я миусская улица;37.596965 55.779737;Тверской район
8134;столовая шк 480;нет;столовая;город москва, средняя калитниковская улица, дом 22, строение 3;88;средняя калитниковская улица;37.68465 55.735302;Таганский район
8143;15 kitchen+bar;нет;ресторан;город москва, пожарский переулок, дом 15;30;пожарский переулок;37.600675 55.741744;район Хамовники
8147;дорогая я перезвоню;да;бар;город москва, большой строченовский переулок, дом 7;90;большой строченовский переулок;37.630858 55.729077;район Замоскворечье
8168;школа 1247;нет;столовая;город москва, госпитальный переулок, дом 3;35;госпитальный переулок;37.687497 55.770993;Басманный район
8199;крейзи дейзи;нет;бар;город москва, тургеневская площадь, дом 2;45;тургеневская площадь;37.635835 55.765311;Красносельский район
8229;школа 1621;нет;столовая;город москва, малый казённый переулок, дом 3;100;малый казённый переулок;37.65267 55.760287;Басманный район
8239;академия;да;кафе;город москва, бутиковский переулок, дом 7;35;бутиковский переулок;37.602184 55.737801;район Хамовники
8316;ribambelle;нет;ресторан;город москва, ботанический переулок, дом 5;80;ботанический переулок;37.637668 55.77792;Мещанский район
8342;столовая при гбоу школа 1231;нет;столовая;город москва, 7-й ростовский переулок, дом 16;40;7-й ростовский переулок;37.57492 55.74147;район Хамовники
8343;столовая при гбоу школа 1253;нет;столовая;город москва, пуговишников переулок, дом 7;70;пуговишников переулок;37.586374 55.732144;район Хамовники
8360;школа №83;нет;столовая;город москва, стрельбищенский переулок, дом 14;100;стрельбищенский переулок;37.540245 55.759745;Пресненский район
8376;лса;нет;столовая;город москва, большой знаменский переулок, дом 2, строение 26;24;большой знаменский переулок;37.603433 55.745873;район Хамовники
8402;столовая шк 1468;нет;столовая;город москва, брошевский переулок, дом 21;75;брошевский переулок;37.672594 55.735125;Таганский район
8445;венская кофейня-кофе шоп;нет;кафе;город москва, известковый переулок, дом 1;65;известковый переулок;37.656146 55.745118;Таганский район
8449;буфет школы 1305;нет;буфет;город москва, 2-й красносельский переулок, дом 18;130;2-й красносельский переулок;37.6698 55.784364;Красносельский район
8511;ресторан «заречье»;нет;ресторан;город москва, город троицк, 1-й заречный переулок, дом 17;47;1-й заречный переулок;37.304644 55.496797;
8539;пункт общественного питания без зала обслуживания посетителей;нет;предприятие быстрого обслуживания;город москва, город троицк, большая октябрьская улица, дом 4;0;большая октябрьская улица;37.300386 55.491574;
8601;кухня «сытый слон». доставка горячих обедов;нет;предприятие быстрого обслуживания;город москва, город троицк, троицкий бульвар, дом 7;0;троицкий бульвар;37.291152 55.466601;
8651;кафе на азс;нет;кафетерий;город москва, город троицк, 39-й километр калужского шоссе, дом 13г;18;39-й километр калужского шоссе;37.317472 55.476352;
8764;вкусная жизнь;нет;ресторан;улица каманина, домовладение 11, строение 2;35;улица каманина;30.348621 53.937992;
8777;школа;нет;столовая;город москва, новопресненский переулок, дом 6;30;новопресненский переулок;37.575316 55.766628;Пресненский район
8789;кафетерий на заправке;нет;кафетерий;город москва, улица сайкина, дом 2;6;улица сайкина;37.665695 55.706639;Даниловский район
8798;кафе «skuratov»;нет;кафе;калашный переулок, дом 8а/5, строение 3;20;калашный переулок;37.601771 55.755282;Пресненский район
8800;crystal;нет;ресторан;город москва, шубинский переулок, дом 2/3;49;шубинский переулок;37.579735 55.746578;район Арбат
8842;набатчиков а.п.;нет;буфет;проектируемый проезд n 5231, дом 8, строение 3;20;проектируемый проезд n 5231;37.433867 55.668056;район Очаково-Матвеевское
8875;школьно-базовая столовая;нет;столовая;полевая улица, дом 20;205;полевая улица;73.186645 55.04825;
8942;чуковский;нет;кафе;город москва, 6-я улица новые сады, дом 2;32;6-я улица новые сады;37.347233 55.652502;район Ново-Переделкино
8955;карлсон и ко;нет;кафе;город москва, поселение внуковское, улица корнея чуковского, дом 5;7;улица корнея чуковского;37.325961 55.637271;
8957;школа;нет;столовая;город москва, причальный проезд, дом 7, строение 1;60;причальный проезд;37.51777 55.759223;Пресненский район
9010;перелетный кабак;нет;кафе;город москва, мансуровский переулок, дом 10, строение 2;40;мансуровский переулок;37.593794 55.740309;район Хамовники
9014;кафе «волконский»;нет;кафе;город москва, переулок маяковского, дом 3;2;переулок маяковского;37.660521 55.739498;Таганский район
9053;арт кафе «new place moscow»;нет;кафе;город москва, площадь журавлёва, дом 2, строение 2;120;площадь журавлёва;37.70231 55.784;район Соколиная Гора
9133;хач хач хачапури ловкач;нет;предприятие быстрого обслуживания;город москва, 1-я чоботовская аллея, дом 6-б;5;1-я чоботовская аллея;37.35415 55.655793;район Ново-Переделкино
9243;kfc;да;предприятие быстрого обслуживания;город москва, каскадная улица, домовладение 21, строение 1;20;каскадная улица;37.872802 55.70706;район Косино-Ухтомский
9294;столешников;нет;кафе;город москва, дмитровский переулок, дом 3, строение 4;46;дмитровский переулок;37.615336 55.7621;Тверской район
9335;буфет;нет;буфет;город москва, прохладная улица, дом 28;0;прохладная улица;37.673187 55.61628;район Бирюлёво Восточное
9366;закусочная «донеретто»;нет;закусочная;город москва, михневский проезд, дом 4, корпус 1;0;михневский проезд;37.66795 55.577495;район Бирюлёво Восточное
9410;tasty joys;нет;кафе;город москва, пестовский переулок, дом 3, строение 1;22;пестовский переулок;37.659218 55.745301;Таганский район
9428;ларам;нет;ресторан;город москва, улица дубки, дом 6;35;улица дубки;37.564913 55.819292;Тимирязевский район
9440;five;нет;кафе;город москва, якиманский переулок, дом 6, строение 1;46;якиманский переулок;37.609973 55.733493;район Якиманка
9674;кафе r.f.lounge;нет;кафе;город москва, красногвардейский бульвар, дом 3, строение 1;36;красногвардейский бульвар;37.542913 55.758939;Пресненский район
9686;скалка;нет;предприятие быстрого обслуживания;город москва, большой николопесковский переулок, дом 5;16;большой николопесковский переулок;37.590452 55.750028;район Арбат
9748;буфет;нет;буфет;город москва, пяловская улица, дом 7, строение 3;12;пяловская улица;37.540865 55.862631;район Западное Дегунино
9790;миа пицца;нет;кафе;город москва, улица полины осипенко, дом 10, корпус 1;10;улица полины осипенко;37.535233 55.779757;Хорошёвский район
9815;little garden kitchen&bar;нет;ресторан;город москва, большой кисельный переулок, дом 17/15, строение 1;70;большой кисельный переулок;37.629466 55.764612;Мещанский район
9843;ип«осипова е.е»;нет;предприятие быстрого обслуживания;город москва, зюзинская улица, дом 3;0;зюзинская улица;37.577175 55.667325;район Черёмушки
9915;ели, пили;нет;столовая;город москва, малый толмачёвский переулок, дом 8/11, строение 3;40;малый толмачёвский переулок;37.619207 55.74114;район Якиманка
9927;бдд паб;нет;бар;город москва, улица знаменские садки, дом 1а;50;улица знаменские садки;37.574327 55.571968;район Северное Бутово
9992;телебистро;нет;кафе;город москва, никитский переулок, дом 7, строение 2;32;никитский переулок;37.610772 55.757749;Тверской район
10009;буфет театра «et cetera»;нет;буфет;город москва, фролов переулок, дом 2;20;фролов переулок;37.635611 55.765063;Красносельский район
10054;столовая;нет;столовая;город москва, 5-й монетчиковский переулок, дом 7;176;5-й монетчиковский переулок;37.632089 55.732033;район Замоскворечье
10142;мята;нет;кафе;город москва, ялтинская улица, дом 2;26;ялтинская улица;37.610619 55.651364;Нагорный район
10161;кафе «pizza express 24»;нет;кафе;город москва, город троицк, физическая улица, дом 8;12;физическая улица;37.289822 55.465616;
10226;котлет нет;нет;закусочная;город москва, боровая улица, дом 10, корпус 2;10;боровая улица;37.714033 55.770877;район Лефортово
10241;gournest гнездо гурмана;нет;ресторан;город москва, бродников переулок, дом 10, корпус 2;40;бродников переулок;37.616189 55.737015;район Якиманка
10259;выпечка;нет;магазин (отдел кулинарии);город москва, 4-я гражданская улица, дом 43, корпус 2;0;4-я гражданская улица;37.720762 55.807208;район Богородское
10290;шаурма;нет;предприятие быстрого обслуживания;город москва, жигулёвская улица, дом 5, корпус 3;0;жигулёвская улица;37.764968 55.71093;район Кузьминки
10306;детское кафе «ежеминутка»;нет;кафе;город москва, улица анатолия живова, дом 10;40;улица анатолия живова;37.55187 55.760125;Пресненский район
10321;выпечка,шаурма;нет;предприятие быстрого обслуживания;город москва, улица академика комарова, дом 5а;0;улица академика комарова;37.594908 55.829092;район Марфино
10370;донер кебаб;нет;предприятие быстрого обслуживания;город москва, улица медиков, дом 16;0;улица медиков;37.677499 55.63318;район Царицыно
10389;бар крафт тайм;нет;бар;город москва, молодёжная улица, дом 4;16;молодёжная улица;37.547836 55.693789;Гагаринский район
10425;раиса захарна;нет;кафе;город москва, улица можайский вал, дом 6;26;улица можайский вал;37.557125 55.745098;район Дорогомилово
10467;предприятие быстрого обслуживания «шаурма»;нет;предприятие быстрого обслуживания;город москва, сумская улица, дом 2/12;0;сумская улица;37.608005 55.623824;район Чертаново Северное
10481;time club убежище;нет;кафе;город москва, архангельский переулок, дом 7, строение 1;70;архангельский переулок;37.637722 55.761259;Басманный район
10568;пиццбургеr №1;нет;кафе;город москва, улица пржевальского, дом 2;12;улица пржевальского;37.451689 55.681849;район Очаково-Матвеевское
10570;шантимель;да;кафе;город москва, улица раевского, дом 3;14;улица раевского;37.553199 55.74487;район Дорогомилово
10599;японоитальяна;нет;закусочная;город москва, улица недорубова, дом 5;4;улица недорубова;37.930042 55.700116;район Некрасовка
10634;так сказала моя мама;нет;кафе;город москва, большой симоновский переулок, дом 2;16;большой симоновский переулок;37.672729 55.728211;Таганский район
10654;вкуснохаус;нет;магазин (отдел кулинарии);город москва, город московский, улица никитина, дом 20;0;улица никитина;37.370518 55.603507;
10682;пивзавод77;нет;бар;город москва, спартаковский переулок, дом 2, строение 1;128;спартаковский переулок;37.672379 55.778487;Красносельский район
10706;кальян бар «garage lounge»;нет;кафе;город москва, малый златоустинский переулок, дом 3, строение 3;10;малый златоустинский переулок;37.633751 55.758407;Басманный район
10788;столовая;нет;столовая;город москва, 2-й балтийский переулок, дом 3;20;2-й балтийский переулок;37.523339 55.808361;район Аэропорт
10803;кафе «emivi»;нет;кафе;город москва, малый конюшковский переулок, дом 2;46;малый конюшковский переулок;37.580193 55.75824;Пресненский район
10826;столовая школы 688;нет;столовая;город москва, 8-я улица соколиной горы, дом 5а;96;8-я улица соколиной горы;37.733257 55.768532;район Соколиная Гора
10857;white eagles pub;нет;бар;город москва, козицкий переулок, дом 1а, строение 2;90;козицкий переулок;37.60814 55.764784;Тверской район
10978;«гбоу «школа с углубленным изучением английского языка» №1208»;нет;столовая;город москва, улица шумилова, дом 9;160;улица шумилова;37.775811 55.708298;район Кузьминки
11043;столовая;нет;столовая;город москва, газгольдерная улица, дом 6;20;газгольдерная улица;37.733635 55.728236;Нижегородский район
11067;пропиком;нет;буфет;город москва, 8-й проезд марьиной рощи, дом 30, строение 1;32;8-й проезд марьиной рощи;37.60452 55.802189;район Марьина Роща
11111;шаурма;нет;предприятие быстрого обслуживания;город москва, проезд нансена, владение 3б;0;проезд нансена;37.653235 55.849413;район Свиблово
11123;кафе свежъ;нет;кафе;город москва, нововладыкинский проезд, дом 8, строение 5;96;нововладыкинский проезд;37.57492 55.851429;район Отрадное
11128;столовая-доготовочная при школе 1414;нет;столовая;город москва, улица советской армии, дом 9;184;улица советской армии;37.615991 55.788905;район Марьина Роща
11131;волна бизнеса;нет;буфет;город москва, 5-й проезд марьиной рощи, дом 15а, строение 1;98;5-й проезд марьиной рощи;37.620528 55.797761;район Марьина Роща
11230;з-д «компрессор»;нет;столовая;город москва, 2-я улица энтузиастов, дом 5;110;2-я улица энтузиастов;37.729017 55.750185;район Перово
11671;кафе;нет;кафе;город москва, садовнический проезд, дом 6;20;садовнический проезд;37.629206 55.741571;район Замоскворечье
11679;столовая;нет;столовая;город москва, малая андроньевская улица, дом 20/8, строение 1-1а;86;малая андроньевская улица;37.672594 55.7422;Таганский район
11890;хлеб насущный;да;кафе;город москва, улица авиаконструктора микояна, дом 12;30;улица авиаконструктора микояна;37.527588 55.792589;Хорошёвский район
11915;папа джонс;да;кафе;город москва, северодвинская улица, дом 20;20;северодвинская улица;37.675154 55.893647;район Северное Медведково
11943;домино'с пицца;да;предприятие быстрого обслуживания;город москва, 4-й кожевнический переулок, дом 4;16;4-й кожевнический переулок;37.649085 55.725143;Даниловский район
12016;кафе при азс лукойл;да;кафе;город москва, малая тульская улица, дом 57;17;малая тульская улица;37.617321 55.701638;Донской район
12154;кафе «фейна»;нет;кафе;город москва, мерзляковский переулок, дом 15;15;мерзляковский переулок;37.59648 55.756721;Пресненский район
12159;кафе «кафейня»;нет;кафе;город москва, электрический переулок, дом 8, строение 2;20;электрический переулок;37.57687 55.771712;Пресненский район
12182;ветерок;нет;кафе;город москва, улица старые кузьминки, дом 10;40;улица старые кузьминки;37.786896 55.690588;район Кузьминки
12210;ресторан «архитектор»;нет;кафе;город москва, гранатный переулок, дом 7, строение 1;100;гранатный переулок;37.590506 55.75937;Пресненский район
12275;plan b;нет;закусочная;город москва, улица атарбекова, дом 4а;8;улица атарбекова;37.707934 55.796547;район Преображенское
12299;пиво бар;нет;бар;город москва, проезд донелайтиса, дом 30;0;проезд донелайтиса;37.420482 55.846108;район Южное Тушино
12345;грузинская пекарня;нет;магазин (отдел кулинарии);город москва, улица маршала мерецкова, дом 4;2;улица маршала мерецкова;37.490299 55.793748;район Щукино
12363;зеленый змий;нет;буфет;город москва, 2-я прядильная улица, дом 4;4;2-я прядильная улица;37.776916 55.79516;район Измайлово
12465;сушиguru;нет;кафе;город москва, челюскинская улица, дом 13;6;челюскинская улица;37.706766 55.883807;Лосиноостровский район
12476;бон кафе;нет;магазин (отдел кулинарии);город москва, улица захарьинские дворики, дом 1, корпус 1;0;улица захарьинские дворики;37.576412 55.503767;район Южное Бутово
12490;гюмри;нет;кафе;город москва, базовая улица, дом 2, корпус 1;60;базовая улица;37.261857 55.61448;район Внуково
12492;ivas lounge;нет;бар;город москва, симферопольский проезд, дом 18;20;симферопольский проезд;37.613952 55.665162;Нагорный район
12538;ресторан «bbcafe»;нет;ресторан;город москва, скатертный переулок, дом 13;75;скатертный переулок;37.594647 55.755753;Пресненский район
12600;столовая;нет;столовая;город москва, 3-й лихачёвский переулок, дом 2а;190;3-й лихачёвский переулок;37.516844 55.846851;Головинский район
12700;бильярдный клуб «дуплет»;нет;кафе;город москва, улица кухмистерова, дом 20, корпус 2;40;улица кухмистерова;37.730041 55.683067;район Печатники
12730;лесной уют;нет;кафе;город москва, народный проспект, дом 17, строение 24;30;народный проспект;37.754269 55.774603;район Измайлово
12845;дядя ваня;нет;кафе;город москва, проспект 40 лет октября, дом 7, строение 2;48;проспект 40 лет октября;37.746409 55.68158;район Люблино
12907;стильавто;нет;кафе;город москва, улица айвазовского, владение 7, строение 1;33;улица айвазовского;37.54003 55.613656;район Ясенево
12918;кунак;нет;кафе;город москва, тарусская улица, дом 10;50;тарусская улица;37.533786 55.60938;район Ясенево
12962;самарканд;нет;кафе;город москва, производственная улица, дом 1, корпус 1, строение 1;15;производственная улица;37.381028 55.649647;район Солнцево
12982;вкус востока;нет;кафе;город москва, улица максимова, дом 18;40;улица максимова;37.464985 55.796688;район Щукино
12988;легенда самарканда;нет;кафе;город москва, парусный проезд, дом 5, строение 1;48;парусный проезд;37.449884 55.846937;район Южное Тушино
13012;кофе и ко;нет;ресторан;город москва, мишина улица, дом 35;8;мишина улица;37.561931 55.796638;Савёловский район
13037;бургеры;нет;кафе;город москва, ижорский проезд, дом 17;16;ижорский проезд;37.522108 55.890765;Дмитровский район
13108;кафе при азс нефтьмагистраль;нет;кафе;город москва, канатчиковский проезд, владение 5;6;канатчиковский проезд;37.592482 55.702368;Донской район
13112;кафе;нет;кафе;город москва, 1-й кожевнический переулок, дом 6, строение 1;85;1-й кожевнический переулок;37.645959 55.726639;Даниловский район
13260;кафе «yummy»;нет;кафе;город москва, поселение десеновское, 1-я ватутинская улица, дом 5;45;1-я ватутинская улица;37.331639 55.501111;
13273;столовая гбоу школа № 1387;нет;столовая;город москва, машкинское шоссе, дом 7;192;машкинское шоссе;37.386867 55.910483;район Куркино
13297;амстердам чипс компани;нет;кафе;город москва, тестовская улица, дом 1;16;тестовская улица;37.533068 55.747895;Пресненский район
13377;чешская пивная пилзнер;да;ресторан;город москва, малый путинковский переулок, дом 1/2, строение 1;80;малый путинковский переулок;37.608185 55.766283;Тверской район
13546;пекарня папан;нет;кафе;город москва, 2-я квесисская улица, дом 23;20;2-я квесисская улица;37.574893 55.794629;Савёловский район
13576;чайхона vizir;нет;кафе;город москва, 2-я улица марьиной рощи, дом 22;45;2-я улица марьиной рощи;37.620186 55.799674;район Марьина Роща
13594;жингялов хац гирос бургер;нет;кафе;город москва, 2-й новоподмосковный переулок, дом 8;6;2-й новоподмосковный переулок;37.509478 55.819049;Войковский район
13618;kaufman кафе;нет;кафе;город москва, посланников переулок, дом 9, строение 5;30;посланников переулок;37.683194 55.770831;Басманный район
13627;кулинариум;нет;магазин (отдел кулинарии);город москва, рижский проезд, дом 7;0;рижский проезд;37.660611 55.814143;Алексеевский район
13664;кафе «скалка»;нет;кафе;город москва, 2-я филёвская улица, дом 13;18;2-я филёвская улица;37.490057 55.73923;район Филёвский Парк
13747;тандыр;нет;магазин (отдел кулинарии);город москва, улица льва яшина, дом 5, корпус 1;0;улица льва яшина;37.923044 55.698224;район Некрасовка
13775;корнер;нет;кафе;город москва, композиторская улица, дом 17;25;композиторская улица;37.586302 55.751224;район Арбат
13852;кафе-пекарня арчибальд;нет;кафе;город москва, яхромская улица, дом 3;16;яхромская улица;37.538916 55.883449;Дмитровский район
13861;lao lee;нет;кафе;город москва, миусская площадь, дом 9, строение 8;149;миусская площадь;37.596588 55.778978;Тверской район
13866;наливки;нет;кафе;город москва, 1-й спасоналивковский переулок, дом 8, строение 2;14;1-й спасоналивковский переулок;37.616701 55.7333;район Якиманка
13902;cedro;нет;ресторан;город москва, 4-й вятский переулок, дом 10;60;4-й вятский переулок;37.576241 55.801541;Савёловский район
13918;крафт 1.8;нет;кафе;город москва, винницкая улица, дом 1;30;винницкая улица;37.49683 55.698041;район Раменки
13939;шаурма;нет;закусочная;город москва, проезд якушкина, дом 7;0;проезд якушкина;37.611131 55.861029;район Отрадное
13955;кафе «багратион»;нет;кафе;город москва, сеченовский переулок, дом 7а;38;сеченовский переулок;37.594692 55.740694;район Хамовники
14060;кафе-пекарня;нет;закусочная;город москва, староникольская улица, дом 14а;10;староникольская улица;37.544746 55.509844;район Южное Бутово
14114;шаверма;нет;предприятие быстрого обслуживания;город москва, 1-й силикатный проезд, дом 13;0;1-й силикатный проезд;37.510439 55.767863;район Хорошёво-Мнёвники
14227;кафе;нет;кафе;город москва, 3-й угрешский проезд, дом 8, строение 2;15;3-й угрешский проезд;37.699822 55.712315;район Печатники
14440;пацио пицца;нет;кафе;город москва, улица линии октябрьской железной дороги, дом 2, строение 2;20;улица линии октябрьской железной дороги;37.572082 55.838819;Тимирязевский район
14704;кадаши ( закрытый);нет;ресторан;город москва, 2-й кадашёвский переулок, дом 16, строение 1;15;2-й кадашёвский переулок;37.621902 55.743745;район Якиманка
14798;кондитерская «пряник.рогалик»;нет;кафе;город москва, город троицк, пионерская улица, дом 2;20;пионерская улица;37.305507 55.475919;
14974;горячий хлеб;нет;предприятие быстрого обслуживания;город москва, поселение десеновское, улица дмитрия рябинкина, дом 13;0;улица дмитрия рябинкина;37.332474 55.502615;
15017;кофейня;нет;кафетерий;город москва, поселение щаповское, улица евгения родионова, владение 1;16;улица евгения родионова;37.360987 55.384124;
